OBJECT_NAME,OBJECT_ID,EPOCH,MEAN_MOTION,ECCENTRICITY,INCLINATION,RA_OF_ASC_NODE,ARG_OF_PERICENTER,MEAN_ANOMALY,EPHEMERIS_TYPE,CLASSIFICATION_TYPE,NORAD_CAT_ID,ELEMENT_SET_NO,REV_AT_EPOCH,BSTAR,MEAN_MOTION_DOT,MEAN_MOTION_DDOT
STARLINK-31071,2023-200P,2026-06-08T20:37:59.546208,15.27557553,.0000902,43.0019,213.7960,258.0283,102.0467,0,U,58602,999,13943,-.10783E-3,-.3226E-4,0
STARLINK-31080,2023-200Q,2026-06-07T08:09:11.566080,15.27589357,.0000084,43.0080,22.3782,64.9437,295.1424,0,U,58603,999,13713,.6996E-4,.1664E-4,0
STARLINK-31088,2023-200R,2026-06-07T08:12:52.581600,15.27580556,.0004273,43.0043,22.3905,267.8737,92.1625,0,U,58604,999,13732,-.13746E-3,-.4045E-4,0
STARLINK-31038,2023-200S,2026-06-09T00:00:04.000320,15.34309344,.0009508,43.0019,11.3559,259.8495,212.5517,0,U,58605,999,572,.27031E-2,.92708E-3,0
STARLINK-31082,2023-200T,2026-06-07T08:18:30.313152,15.27546870,.00022873,43.0081,22.4335,266.1477,93.9113,0,U,58606,999,13732,-.12034281E-3,-.3569E-4,0
STARLINK-31069,2023-200U,2026-06-08T22:09:18.819072,15.27573800,.0000977,43.0063,13.6280,258.3683,101.7059,0,U,58607,999,13756,.12654E-3,.3221E-4,0
STARLINK-31067,2023-200V,2026-06-08T20:40:41.771712,15.27600632,.0001395,43.0027,14.0279,309.3176,50.7552,0,U,58608,999,13755,-.13786E-3,-.4056E-4,0
STARLINK-31085,2023-200W,2026-06-08T22:20:25.958400,15.27547889,.0001562,43.0037,13.6822,266.9527,93.1146,0,U,58609,999,13756,.31205E-3,.8326E-4,0
STARLINK-31089,2023-200X,2026-06-08T21:06:35.755200,15.27583871,.0001436,43.0045,14.1064,273.2136,86.8552,0,U,58610,999,13755,-.50525E-4,-.1652E-4,0
STARLINK-31061,2023-200Y,2026-06-09T01:32:25.886400,15.27580686,.0001628,43.0038,12.9571,261.8809,98.1858,0,U,58611,999,13758,.37257E-4,.763E-5,0
STARLINK-31054,2023-203B,2026-06-08T23:52:31.995264,15.27589377,.0000775,43.0065,271.5965,267.0178,93.0585,0,U,58619,999,13752,.15205E-3,.3925E-4,0
STARLINK-31134,2023-203D,2026-06-09T00:24:01.607328,15.27563619,.0000082,43.0087,271.7586,249.8987,110.1856,0,U,58621,999,13752,.70617E-4,.1681E-4,0
STARLINK-31133,2023-203E,2026-06-08T14:22:04.610208,15.27581752,.00011081,42.9942,273.7804,268.3854,91.6871,0,U,58622,999,13746,.28163234E-4,.513E-5,0
STARLINK-31068,2023-203F,2026-06-08T14:16:31.957248,15.27576802,.00016051,43.0025,273.7590,269.9724,90.0944,0,U,58623,999,13746,.5120241E-5,-.121E-5,0
STARLINK-31129,2023-203G,2026-06-08T14:12:50.524416,15.27640559,.0001819,43.0052,273.7409,254.6922,105.3729,0,U,58624,999,13746,.52855742E-3,.14338E-3,0
STARLINK-30774,2023-203H,2026-06-08T18:49:43.023936,15.27580052,.0002313,43.0033,272.5966,271.8088,88.2499,0,U,58625,999,13749,.19385E-3,.5076E-4,0
STARLINK-31086,2023-203J,2026-06-07T01:24:39.617568,15.27561193,.0004726,43.0059,282.0115,272.8243,87.2067,0,U,58626,999,13723,-.87142E-4,-.266E-4,0
STARLINK-31065,2023-203K,2026-06-09T00:46:00.440256,15.27569874,.0001711,43.0013,271.0194,247.4458,112.6213,0,U,58627,999,13753,-.31766E-4,-.1136E-4,0
STARLINK-31092,2023-203L,2026-06-08T14:01:43.625280,15.27574440,.00011247,43.0015,273.6765,247.9987,112.0746,0,U,58628,999,13746,-.349317E-6,-.272E-5,0
STARLINK-31091,2023-203M,2026-06-08T14:34:19.862976,15.27576857,.0002414,43.0036,277.2855,284.0763,75.9821,0,U,58629,999,13742,.39346E-4,.82E-5,0
STARLINK-31084,2023-203N,2026-06-08T14:28:46.181856,15.27579138,.0000866,42.9943,277.2541,172.5632,187.5233,0,U,58630,999,13742,.4657E-4,.102E-4,0
STARLINK-31064,2023-203P,2026-06-09T00:15:54.751104,15.27585252,.0001581,43.0019,275.1520,267.2502,92.8169,0,U,58631,999,13865,.59464E-4,.1375E-4,0
STARLINK-31081,2023-203Q,2026-06-08T14:15:46.651680,15.27623917,.00025863,43.0052,277.1876,275.4600,84.5957,0,U,58632,999,13865,-.24237697E-3,-.6936E-4,0
STARLINK-31022,2023-203R,2026-06-09T00:27:01.384992,15.27567901,.0000132,43.0118,275.2110,206.5812,153.5033,0,U,58633,999,13871,.59425E-4,.1373E-4,0
STARLINK-31025,2023-203S,2026-06-09T00:36:44.368992,15.27577711,.0000177,43.0018,270.8947,347.7777,12.3070,0,U,58634,999,13876,-.16038E-5,-.306E-5,0
STARLINK-31018,2023-203T,2026-06-09T00:09:12.060576,15.27587521,.0001529,43.0056,271.6915,258.5467,101.5213,0,U,58635,999,13875,.11467E-3,.2895E-4,0
STARLINK-31008,2023-203U,2026-06-09T00:12:55.478016,15.27577414,.000017,43.0137,271.7030,46.3427,313.7439,0,U,58636,999,13875,.16687E-4,.197E-5,0
STARLINK-31077,2023-203V,2026-06-09T00:03:39.887136,15.27580425,.0001126,43.0075,271.6580,251.9657,108.1072,0,U,58637,999,13875,.13437E-4,.108E-5,0
STARLINK-31078,2023-203W,2026-06-08T23:58:06.974112,15.27576778,.0000788,43.0050,271.6310,248.8908,111.1859,0,U,58638,999,13752,.56701E-5,-.106E-5,0
STARLINK-31070,2023-203X,2026-06-09T00:18:28.967328,15.27561451,.0000134,43.0064,271.7304,155.4964,204.5894,0,U,58639,999,13752,.19871E-5,-.207E-5,0
STARLINK-31090,2023-203Y,2026-06-08T23:46:20.215200,15.27575625,.0001266,43.0050,263.7834,268.0322,92.0384,0,U,58640,999,13762,.11252E-3,.2835E-4,0
STARLINK-31113,2023-211B,2026-06-09T01:41:47.893344,15.27582530,.0001572,43.0013,288.9105,265.0732,94.9940,0,U,58668,999,13644,.39504E-4,.825E-5,0
STARLINK-31128,2023-211C,2026-06-09T02:05:54.531744,15.27567162,.0000165,43.0002,289.0335,104.9317,255.1553,0,U,58669,999,13644,-.17202E-4,-.735E-5,0
STARLINK-31083,2023-211D,2026-06-09T01:36:12.976704,15.27589973,.0005318,43.0019,288.8829,265.1097,94.9147,0,U,58670,999,13644,.65694E-4,.1546E-4,0
STARLINK-30828,2023-211E,2026-06-08T15:21:33.929856,15.27568572,.0001213,43.0000,291.6982,279.3204,80.7510,0,U,58671,999,13637,-.10104E-3,-.304E-4,0
STARLINK-31104,2023-211F,2026-06-09T00:36:26.662176,15.50845444,.0022108,42.9918,277.2341,353.8322,6.2263,0,U,58672,999,13785,.94948E-3,.56854E-3,0
STARLINK-31131,2023-211G,2026-06-07T15:12:27.929376,15.27556086,.0001527,43.0037,286.5287,263.3364,96.7314,0,U,58673,999,13762,-.15863E-3,-.4621E-4,0
STARLINK-31124,2023-211H,2026-06-09T01:47:24.326304,15.27560303,.0000752,42.9993,288.9430,79.0269,281.0667,0,U,58674,999,13644,-.61162E-4,-.1943E-4,0
STARLINK-31126,2023-211J,2026-06-09T01:25:09.168096,15.27569664,.0001242,43.0023,288.8151,249.0260,111.0459,0,U,58675,999,13644,.60136E-4,.1393E-4,0
STARLINK-31066,2023-211K,2026-06-09T01:15:51.367104,15.27578243,.0001302,43.0076,75.0874,257.4853,102.5853,0,U,58676,999,13600,.10607E-3,.2658E-4,0
STARLINK-31058,2023-211L,2026-06-09T01:51:02.680704,15.27585778,.0002089,43.0117,288.9574,284.1201,75.9419,0,U,58677,999,13644,.56176E-4,.1284E-4,0
STARLINK-31125,2023-211M,2026-06-08T15:25:16.884192,15.27575358,.0001375,43.0009,291.7122,246.3827,113.6880,0,U,58678,999,13754,-.40578E-5,-.374E-5,0
STARLINK-31110,2023-211N,2026-06-09T01:56:37.182624,15.27566345,.0001018,43.0054,288.9883,279.0600,81.0137,0,U,58679,999,13644,-.99086E-4,-.2986E-4,0
STARLINK-31112,2023-211P,2026-06-09T02:07:43.908096,15.27581476,.0000655,42.9991,289.0396,171.4391,188.6472,0,U,58680,999,13762,.19647E-4,.279E-5,0
STARLINK-31147,2023-211Q,2026-06-08T15:30:49.209696,15.27574328,.0000445,42.9997,291.7459,210.1203,149.9623,0,U,58681,999,13637,-.5085E-4,-.166E-4,0
STARLINK-31144,2023-211R,2026-06-09T01:28:53.524704,15.27552145,.0001989,42.9991,288.8370,258.1066,101.9563,0,U,58682,999,13644,.38871E-3,.10441E-3,0
STARLINK-31095,2023-211S,2026-06-09T01:14:17.363040,15.27534641,.000043,43.0069,289.6225,245.0250,115.0557,0,U,58683,999,13770,.47439E-3,.12797E-3,0
STARLINK-31107,2023-211T,2026-06-09T01:23:32.612640,15.27564030,.0000811,43.0039,289.6709,248.3813,111.6952,0,U,58684,999,13643,-.41491E-4,-.1403E-4,0
STARLINK-31121,2023-211U,2026-06-09T01:34:26.086944,15.27564686,.0000074,43.0082,288.8640,233.6575,126.4270,0,U,58685,999,13644,-.42248E-4,-.1423E-4,0
STARLINK-31137,2023-211V,2026-06-07T15:54:46.522944,15.27577561,.00017536,43.0011,297.2595,256.1404,103.9253,0,U,58686,999,13622,.11995736E-4,.68E-6,0
STARLINK-31106,2023-211Y,2026-06-07T15:43:40.880928,15.27600097,.00029915,43.0033,297.2072,115.8482,244.2679,0,U,58689,999,13622,.26975048E-3,.7172E-4,0
STARLINK-11072 [DTC],2024-002A,2026-06-08T18:38:18.392928,15.69690647,.0001289,53.1591,184.9916,106.2983,253.8176,0,U,58705,999,14074,.4413E-4,.4756E-4,0
STARLINK-11075 [DTC],2024-002B,2026-06-08T08:38:46.290336,15.69705192,.0001256,53.1610,186.6508,77.7091,282.4067,0,U,58706,999,14068,-.1082753E-5,-.72E-5,0
STARLINK-11077 [DTC],2024-002C,2026-06-08T23:27:29.723040,15.69695481,.0000683,53.1586,184.0988,83.1609,276.9487,0,U,58707,999,14077,.23508E-4,.2259E-4,0
STARLINK-11079 [DTC],2024-002D,2026-06-08T18:31:14.958624,15.69710790,.0000919,53.1584,184.9550,105.4868,254.6251,0,U,58708,999,14074,.15689E-4,.1313E-4,0
STARLINK-11076 [DTC],2024-002E,2026-06-08T18:24:11.448288,15.69699463,.0000583,53.1580,184.9279,73.0233,287.0849,0,U,58709,999,14074,.23114E-4,.2212E-4,0
STARLINK-11078 [DTC],2024-002F,2026-06-08T07:35:20.241600,15.69716342,.00009167,53.1587,187.0916,78.3421,281.7700,0,U,58710,999,14067,-.13459336E-4,-.2219E-4,0
STARLINK-31031,2024-002G,2026-06-08T17:42:33.517152,15.34398821,.0001218,53.1582,166.4382,73.8511,286.2626,0,U,58711,999,13596,.22525E-4,.385E-5,0
STARLINK-31029,2024-002H,2026-06-08T17:04:33.479904,15.30194770,.0001332,53.1600,166.9764,94.1035,266.0118,0,U,58712,999,13595,.14489E-4,.7E-6,0
STARLINK-30973,2024-002J,2026-06-08T17:13:41.337120,15.30173902,.0001101,53.1593,167.0147,87.1404,272.9723,0,U,58713,999,13595,.24194E-3,.6807E-4,0
STARLINK-31100,2024-002K,2026-06-08T04:45:48.600288,15.30189358,.0001178,53.1590,169.4549,84.5260,275.5875,0,U,58714,999,13587,-.20371E-5,-.419E-5,0
STARLINK-31102,2024-002L,2026-06-08T04:29:53.595168,15.34385910,.0001048,53.1606,169.3882,94.6672,265.4450,0,U,58715,999,13587,.63537E-4,.177E-4,0
STARLINK-31098,2024-002M,2026-06-09T04:19:38.739072,15.30190610,.0001217,53.1593,164.9214,97.7962,262.3177,0,U,58716,999,13602,.47463E-4,.1046E-4,0
STARLINK-31093,2024-002N,2026-06-09T04:30:17.141760,15.30190146,.0001202,53.1595,164.9798,98.1047,262.0091,0,U,58717,999,13602,.1851E-4,.189E-5,0
